ORBCOMM FM06            
1 25118U 97084G   26185.66282155  .00001872  00000+0  54229-3 0  9994
2 25118  45.0145 328.5818 0000634 197.3724 177.2923 14.47610914496927
ORBCOMM FM04            
1 25159U 98007C   26185.53407679  .00001155  00000+0  44020-3 0  9993
2 25159 107.9628 205.1225 0041790 295.0403  64.6402 14.35773506479089
ORBCOMM FM19            
1 25415U 98046C   26185.66083383  .00001388  00000+0  48595-3 0  9996
2 25415  44.9920 160.4996 0003844 359.2794 170.3556 14.39527996459291
ORBCOMM FM20            
1 25416U 98046D   26185.31096604  .00000701  00000+0  27564-3 0  9990
2 25416  44.9918 170.2747 0002243 308.6758  51.3889 14.38087344459252
ORBCOMM FM27            
1 25481U 98053G   26185.47253721  .00000896  00000+0  33238-3 0  9992
2 25481  45.0046 253.2530 0002280 254.8414 105.2183 14.39172966452729
ORBCOMM FM32            
1 25982U 99065C   26185.46069270  .00000893  00000+0  34474-3 0  9995
2 25982  45.0150  91.4757 0004728 136.5900 223.5321 14.37156132389574
ORBCOMM FM109           
1 40086U 14040A   26185.56252004  .00000708  00000+0  18599-3 0  9992
2 40086  47.0040   9.3372 0001836 291.7774  68.2916 14.58865853636880
ORBCOMM FM110           
1 41182U 15081D   26185.56766189  .00001016  00000+0  25086-3 0  9992
2 41182  47.0022 279.2626 0003016 174.8918 185.1999 14.58909708560166
ORBCOMM FM118           
1 41183U 15081E   26185.60199432  .00000639  00000+0  17120-3 0  9999
2 41183  47.0040 279.4352 0002378 131.4210 228.6881 14.58898179560273
ORBCOMM FM112           
1 41184U 15081F   26185.40077361  .00000619  00000+0  16692-3 0  9995
2 41184  46.9970 188.8469 0004116 285.1496  74.8934 14.58924251561464
ORBCOMM FM113           
1 41185U 15081G   26185.44645446  .00000402  00000+0  12122-3 0  9999
2 41185  46.9987 189.0158 0002606 283.6685  76.3911 14.58873789561456
ORBCOMM FM108           
1 41187U 15081J   26185.47712870  .00001004  00000+0  24837-3 0  9995
2 41187  47.0046 100.4489 0003105 284.1210  75.9331 14.58898787562609
ORBCOMM FM117           
1 41188U 15081K   26185.16882879  .00000726  00000+0  18968-3 0  9997
2 41188  47.0009 100.5362 0003569 287.8149  72.2347 14.58884146562606
ORBCOMM FM116           
1 41189U 15081L   26185.42299114  .00000326  00000+0  10516-3 0  9998
2 41189  47.0003 189.1243 0001092 197.0063 163.0787 14.58899524561453
